*******************************************************************************
 Revised: September 10, 2019           Uranus                               799
 
 PHYSICAL DATA (updated 2018-Aug-15):
  Mass x10^24 (kg)      = 86.813          Density (g/cm^3)       =  1.271
  Equat. radius (1 bar) = 25559+-4 km     Polar radius (km)      = 24973+-20
  Vol. Mean Radius (km) = 25362+-12       Flattening             =  0.02293
  Geometric Albedo      = 0.51
  Sid. rot. period (III)= 17.24+-0.01 h   Sid. rot. rate (rad/s) = -0.000101237
  Mean solar day, h     =~17.24           Rocky core mass (Mc/M) =  0.0012        
  GM (km^3/s^2)         = 5793951.322     GM 1-sigma (km^3/s^2)  = +-4.3 
  Equ. grav, ge (m/s^2) =  8.87           Pol. grav, gp (m/s^2)  =   9.19+-0.02
  Visual magnitude V(1,0)= -7.11
  Vis. mag. (opposition)=  +5.52          Obliquity to orbit     = 97.77 deg
  Sidereal orbit period = 84.0120465 y    Sidereal orbit period  = 30685.4 d
  Mean daily motion     = 0.01176904 dg/d Mean orbit velocity    =  6.8 km/s
  Atmos. temp. (1 bar)  =  76+-2 K        Escape speed, km/s     =  21.3           
  Aroche(ice)/Rp        =  2.20           Hill's sphere rad., Rp = 2700
                                 Perihelion   Aphelion    Mean
  Solar Constant (W/m^2)         4.09         3.39        3.71
  Maximum Planetary IR (W/m^2)   0.72         0.55        0.63
  Minimum Planetary IR (W/m^2)   0.72         0.55        0.63
*******************************************************************************
 
 
*******************************************************************************
Ephemeris / WWW_USER Mon May  4 11:14:12 2020 Pasadena, USA      / Horizons    
*******************************************************************************
Target body name: Uranus (799)                    {source: ura111}
Center body name: Sun (10)                        {source: DE431mx}
Center-site name: BODY CENTER
*******************************************************************************
Start time      : A.D. 2019-Oct-15 00:00:00.0000 TDB
Stop  time      : A.D. 2149-Oct-15 00:00:00.0000 TDB
Step-size       : 138240 minutes
*******************************************************************************
Center geodetic : 0.00000000,0.00000000,0.0000000 {E-lon(deg),Lat(deg),Alt(km)}
Center cylindric: 0.00000000,0.00000000,0.0000000 {E-lon(deg),Dxy(km),Dz(km)}
Center radii    : 696000.0 x 696000.0 x 696000.0 k{Equator, meridian, pole}    
Output units    : AU-D                                                         
Output type     : GEOMETRIC cartesian states
Output format   : 2 (position and velocity)
Reference frame : ICRF/J2000.0                                                 
Coordinate systm: Ecliptic and Mean Equinox of Reference Epoch                 
*******************************************************************************
            JDTDB,            Calendar Date (TDB),                      X,                      Y,                      Z,                     VX,                     VY,                     VZ,
**************************************************************************************************************************************************************************************************
$$SOE
2491411.500000000, A.D. 2109-Feb-25 00:00:00.0000,  1.092048403275746E+01,  1.619940536712785E+01, -8.128434948536302E-02, -3.296537182641276E-03,  2.014024465634469E-03,  5.002774223880593E-05,
2491507.500000000, A.D. 2109-Jun-01 00:00:00.0000,  1.060205862313328E+01,  1.638972942112896E+01, -7.645719297014242E-02, -3.337275736117426E-03,  1.950936199464822E-03,  5.036792083187518E-05,
2491603.500000000, A.D. 2109-Sep-05 00:00:00.0000,  1.027978847577827E+01,  1.657396244725165E+01, -7.160283729725124E-02, -3.376718713961031E-03,  1.887197151514293E-03,  5.067754532193825E-05,
2491699.500000000, A.D. 2109-Dec-10 00:00:00.0000,  9.953778405040554E+00,  1.675203717322282E+01, -6.672277684240491E-02, -3.415125892296036E-03,  1.822542044693837E-03,  5.097281559895064E-05,
2491795.500000000, A.D. 2110-Mar-16 00:00:00.0000,  9.624151674525303E+00,  1.692385955048675E+01, -6.181914848004340E-02, -3.451975101184397E-03,  1.757060175834224E-03,  5.121985888088341E-05,
2491891.500000000, A.D. 2110-Jun-20 00:00:00.0000,  9.291041995831982E+00,  1.708937685086951E+01, -5.689413601463318E-02, -3.487699130116267E-03,  1.691095927439105E-03,  5.142209049975330E-05,
2491987.500000000, A.D. 2110-Sep-24 00:00:00.0000,  8.954552172119401E+00,  1.724852131584917E+01, -5.194918483407359E-02, -3.522240594475194E-03,  1.624275438840270E-03,  5.156388429828986E-05,
2492083.500000000, A.D. 2110-Dec-29 00:00:00.0000,  8.614807992348632E+00,  1.740122311310990E+01, -4.698690332009080E-02, -3.555571711701943E-03,  1.556869540158147E-03,  5.168387410342995E-05,
2492179.500000000, A.D. 2111-Apr-04 00:00:00.0000,  8.271924575175303E+00,  1.754741574994316E+01, -4.200836550207943E-02, -3.587664416093739E-03,  1.488674718763890E-03,  5.182889026034862E-05,
2492275.500000000, A.D. 2111-Jul-09 00:00:00.0000,  7.926038568996049E+00,  1.768703661304847E+01, -3.701607135649185E-02, -3.618353835333744E-03,  1.420074489483237E-03,  5.201307562941609E-05,
2492371.500000000, A.D. 2111-Oct-13 00:00:00.0000,  7.577259137770276E+00,  1.782004363762515E+01, -3.201141784758929E-02, -3.648008628356843E-03,  1.350808708531387E-03,  5.223071706545891E-05,
2492467.500000000, A.D. 2112-Jan-17 00:00:00.0000,  7.225702652143172E+00,  1.794635822631491E+01, -2.699638735678892E-02, -3.676109226022355E-03,  1.280771583984873E-03,  5.240161519508848E-05,
2492563.500000000, A.D. 2112-Apr-22 00:00:00.0000,  6.871507478110227E+00,  1.806593224094518E+01, -2.197313180395728E-02, -3.702931423515572E-03,  1.210333056076752E-03,  5.249806697740748E-05,
2492659.500000000, A.D. 2112-Jul-27 00:00:00.0000,  6.514788234945783E+00,  1.817871458970442E+01, -1.694301099901652E-02, -3.728502632126298E-03,  1.139263245693430E-03,  5.250765603806802E-05,
2492755.500000000, A.D. 2112-Oct-31 00:00:00.0000,  6.155671660211914E+00,  1.828465697166656E+01, -1.190858538758140E-02, -3.752922824725270E-03,  1.067798223098822E-03,  5.249107464020672E-05,
2492851.500000000, A.D. 2113-Feb-04 00:00:00.0000,  5.794267316005874E+00,  1.838370400296845E+01, -6.870833413946944E-03, -3.776121137836122E-03,  9.955788572684938E-04,  5.250874612733841E-05,
2492947.500000000, A.D. 2113-May-11 00:00:00.0000,  5.430718522203670E+00,  1.847579644865535E+01, -1.832110193573620E-03, -3.797744766532526E-03,  9.230390421702259E-04,  5.255920128219573E-05,
2493043.500000000, A.D. 2113-Aug-15 00:00:00.0000,  5.065146437844257E+00,  1.856090953279704E+01,  3.206268681663864E-03, -3.818267772483178E-03,  8.500685786018590E-04,  5.261546182932036E-05,
2493139.500000000, A.D. 2113-Nov-19 00:00:00.0000,  4.697665212223482E+00,  1.863898426999945E+01,  8.242478199193579E-03, -3.837329898888657E-03,  7.764628072355461E-04,  5.259549998915270E-05,
2493235.500000000, A.D. 2114-Feb-23 00:00:00.0000,  4.328409643740968E+00,  1.870997801180232E+01,  1.327443067181179E-02, -3.855121527608521E-03,  7.024752473936918E-04,  5.249512074221844E-05,
2493331.500000000, A.D. 2114-May-30 00:00:00.0000,  3.957504131423073E+00,  1.877384435060213E+01,  1.830090057807903E-02, -3.871558293602486E-03,  6.279826098906375E-04,  5.233455990166161E-05,
2493427.500000000, A.D. 2114-Sep-03 00:00:00.0000,  3.585085163576809E+00,  1.883055158213283E+01,  2.331941266366790E-02, -3.886807952902156E-03,  5.533108181854650E-04,  5.218603594326437E-05,
2493523.500000000, A.D. 2114-Dec-08 00:00:00.0000,  3.211259472017685E+00,  1.888006067957403E+01,  2.832907897683151E-02, -3.900894779754879E-03,  4.779795368085152E-04,  5.209489729580114E-05,
2493619.500000000, A.D. 2115-Mar-14 00:00:00.0000,  2.836168514147638E+00,  1.892231320571748E+01,  3.332766329026898E-02, -3.913313844267212E-03,  4.022921744756856E-04,  5.203359607806629E-05,
2493715.500000000, A.D. 2115-Jun-18 00:00:00.0000,  2.459947457472605E+00,  1.895728858360717E+01,  3.831389932369825E-02, -3.924478957173035E-03,  3.263041515699096E-04,  5.196881254467017E-05,
2493811.500000000, A.D. 2115-Sep-22 00:00:00.0000,  2.082718817158514E+00,  1.898494401848398E+01,  4.328609673450362E-02, -3.934170814858754E-03,  2.498416505084149E-04,  5.183104821520101E-05,
2493907.500000000, A.D. 2115-Dec-27 00:00:00.0000,  1.704616086195556E+00,  1.900524684098356E+01,  4.824220835802087E-02, -3.942600077797543E-03,  1.730274578309661E-04,  5.162914684068486E-05,
2494003.500000000, A.D. 2116-Apr-01 00:00:00.0000,  1.325768482555800E+00,  1.901814865402212E+01,  5.318109066468702E-02, -3.949499142130870E-03,  9.567054912208325E-05,  5.137466438910980E-05,
2494099.500000000, A.D. 2116-Jul-06 00:00:00.0000,  9.463311491100989E-01,  1.902362181051650E+01,  5.810024410148057E-02, -3.954978001687147E-03,  1.825490803011062E-05,  5.110284485875289E-05,
2494195.500000000, A.D. 2116-Oct-10 00:00:00.0000,  5.664228437442611E-01,  1.902164308312011E+01,  6.299868396667403E-02, -3.959248713787520E-03, -5.967560275803560E-05,  5.083240312550492E-05,
2494291.500000000, A.D. 2117-Jan-14 00:00:00.0000,  1.861878966090655E-01,  1.901216038057632E+01,  6.787406609990135E-02, -3.961837415049933E-03, -1.379751765690362E-04,  5.054895771029946E-05,
2494387.500000000, A.D. 2117-Apr-20 00:00:00.0000, -1.942225390852969E-01,  1.899515055303955E+01,  7.272493287275876E-02, -3.962990620920086E-03, -2.165376953180587E-04,  5.027272438995362E-05,
2494483.500000000, A.D. 2117-Jul-25 00:00:00.0000, -5.746606779376365E-01,  1.897058066161962E+01,  7.754948407484599E-02, -3.962479860056936E-03, -2.953825129628937E-04,  4.998990668567342E-05,
2494579.500000000, A.D. 2117-Oct-29 00:00:00.0000, -9.549756142755588E-01,  1.893843597392215E+01,  8.234545545871347E-02, -3.960566518078334E-03, -3.743953057228194E-04,  4.972479778672129E-05,
